STARLINK-1337
1 15582C 20025BD  21326.16875074  .00005612  00000-0  37611-3 0  3264
2 15582  53.0523 277.9906 0001735  74.2859 233.7243 15.06382570    17
